{
  "type": "FeatureCollection",
  "features": [
    {
      "type": "Feature",
      "properties": {
        "norad_id": 30040,
        "name": "FENGYUN 1C DEB",
        "group": "fengyun-1c-debris",
        "lat": 68.08270920604217,
        "lon": -150.32180931293632,
        "alt_km": 784.1986404944364,
        "timestamp": "2025-12-18T10:51:26.079949+00:00",
        "meta_object_name": "FENGYUN 1C DEB",
        "meta_object_id": "1999-025NR",
        "meta_epoch": "2025-12-17T14:52:30.448704",
        "meta_mean_motion": 14.37165726,
        "meta_eccentricity": 0.00322803,
        "meta_inclination": 98.2331,
        "meta_ra_of_asc_node": 7.7903,
        "meta_arg_of_pericenter": 297.9762,
        "meta_mean_anomaly": 187.1821,
        "meta_ephemeris_type": 0,
        "meta_classification_type": "U",
        "meta_norad_cat_id": 30040,
        "meta_element_set_no": 999,
        "meta_rev_at_epoch": 97998,
        "meta_bstar": 0.001308807,
        "meta_mean_motion_dot": 3.876e-05,
        "meta_mean_motion_ddot": 0,
        "tle_line1": "1 30040U 99025NR  25351.61979686  .00003876  00000+0  13088-2 0  9995",
        "tle_line2": "2 30040  98.2331   7.7903 0032280 297.9762 187.1821 14.37165726979980"
      },
      "geometry": {
        "type": "Point",
        "coordinates": [
          -150.32180931293632,
          68.08270920604217
        ]
      }
    },
    {
      "type": "Feature",
      "properties": {
        "norad_id": 30041,
        "name": "FENGYUN 1C DEB",
        "group": "fengyun-1c-debris",
        "lat": -74.6828079322716,
        "lon": 136.81083401454254,
        "alt_km": 851.6095649870831,
        "timestamp": "2025-12-18T10:51:26.079962+00:00",
        "meta_object_name": "FENGYUN 1C DEB",
        "meta_object_id": "1999-025NS",
        "meta_epoch": "2025-12-17T06:35:58.208928",
        "meta_mean_motion": 14.13193654,
        "meta_eccentricity": 0.00349947,
        "meta_inclination": 99.4671,
        "meta_ra_of_asc_node": 98.0338,
        "meta_arg_of_pericenter": 204.5614,
        "meta_mean_anomaly": 210.3846,
        "meta_ephemeris_type": 0,
        "meta_classification_type": "U",
        "meta_norad_cat_id": 30041,
        "meta_element_set_no": 999,
        "meta_rev_at_epoch": 97351,
        "meta_bstar": 0.00041349475,
        "meta_mean_motion_dot": 7.29e-06,
        "meta_mean_motion_ddot": 0,
        "tle_line1": "1 30041U 99025NS  25351.27497927  .00000729  00000+0  41349-3 0  9997",
        "tle_line2": "2 30041  99.4671  98.0338 0034994 204.5614 210.3846 14.13193654973514"
      },
      "geometry": {
        "type": "Point",
        "coordinates": [
          136.81083401454254,
          -74.6828079322716
        ]
      }
    },
    {
      "type": "Feature",
      "properties": {
        "norad_id": 30043,
        "name": "FENGYUN 1C DEB",
        "group": "fengyun-1c-debris",
        "lat": 30.058471939780517,
        "lon": -84.6495404918676,
        "alt_km": 642.7533271330585,
        "timestamp": "2025-12-18T10:51:26.079973+00:00",
        "meta_object_name": "FENGYUN 1C DEB",
        "meta_object_id": "1999-025NU",
        "meta_epoch": "2025-12-17T05:30:13.111488",
        "meta_mean_motion": 14.23596953,
        "meta_eccentricity": 0.02836527,
        "meta_inclination": 98.6276,
        "meta_ra_of_asc_node": 89.1085,
        "meta_arg_of_pericenter": 117.9522,
        "meta_mean_anomaly": 245.0678,
        "meta_ephemeris_type": 0,
        "meta_classification_type": "U",
        "meta_norad_cat_id": 30043,
        "meta_element_set_no": 999,
        "meta_rev_at_epoch": 97409,
        "meta_bstar": 0.0005891267,
        "meta_mean_motion_dot": 1.987e-05,
        "meta_mean_motion_ddot": 0,
        "tle_line1": "1 30043U 99025NU  25351.22931842  .00001987  00000+0  58913-3 0  9995",
        "tle_line2": "2 30043  98.6276  89.1085 0283652 117.9522 245.0678 14.23596953974092"
      },
      "geometry": {
        "type": "Point",
        "coordinates": [
          -84.6495404918676,
          30.058471939780517
        ]
      }
    },
    {
      "type": "Feature",
      "properties": {
        "norad_id": 30044,
        "name": "FENGYUN 1C DEB",
        "group": "fengyun-1c-debris",
        "lat": -48.13747254136349,
        "lon": 83.33377575993805,
        "alt_km": 719.1119126426793,
        "timestamp": "2025-12-18T10:51:26.079984+00:00",
        "meta_object_name": "FENGYUN 1C DEB",
        "meta_object_id": "1999-025NV",
        "meta_epoch": "2025-12-17T17:15:32.565024",
        "meta_mean_motion": 14.50720681,
        "meta_eccentricity": 0.00797276,
        "meta_inclination": 98.212,
        "meta_ra_of_asc_node": 271.8925,
        "meta_arg_of_pericenter": 151.7128,
        "meta_mean_anomaly": 208.8431,
        "meta_ephemeris_type": 0,
        "meta_classification_type": "U",
        "meta_norad_cat_id": 30044,
        "meta_element_set_no": 999,
        "meta_rev_at_epoch": 98111,
        "meta_bstar": 0.0011703278,
        "meta_mean_motion_dot": 4.75e-05,
        "meta_mean_motion_ddot": 0,
        "tle_line1": "1 30044U 99025NV  25351.71912691  .00004750  00000+0  11703-2 0  9997",
        "tle_line2": "2 30044  98.2120 271.8925 0079727 151.7128 208.8431 14.50720681981116"
      },
      "geometry": {
        "type": "Point",
        "coordinates": [
          83.33377575993805,
          -48.13747254136349
        ]
      }
    },
    {
      "type": "Feature",
      "properties": {
        "norad_id": 30045,
        "name": "FENGYUN 1C DEB",
        "group": "fengyun-1c-debris",
        "lat": 24.56120760050472,
        "lon": -147.51511207048068,
        "alt_km": 782.3578963995024,
        "timestamp": "2025-12-18T10:51:26.079995+00:00",
        "meta_object_name": "FENGYUN 1C DEB",
        "meta_object_id": "1999-025NW",
        "meta_epoch": "2025-12-17T16:07:31.270944",
        "meta_mean_motion": 14.21646045,
        "meta_eccentricity": 0.00944592,
        "meta_inclination": 99.1788,
        "meta_ra_of_asc_node": 27.4358,
        "meta_arg_of_pericenter": 99.4027,
        "meta_mean_anomaly": 22.3777,
        "meta_ephemeris_type": 0,
        "meta_classification_type": "U",
        "meta_norad_cat_id": 30045,
        "meta_element_set_no": 999,
        "meta_rev_at_epoch": 96758,
        "meta_bstar": 0.0015344695,
        "meta_mean_motion_dot": 3.478e-05,
        "meta_mean_motion_ddot": 0,
        "tle_line1": "1 30045U 99025NW  25351.67188971  .00003478  00000+0  15345-2 0  9991",
        "tle_line2": "2 30045  99.1788  27.4358 0094459  99.4027  22.3777 14.21646045967583"
      },
      "geometry": {
        "type": "Point",
        "coordinates": [
          -147.51511207048068,
          24.56120760050472
        ]
      }
    },
    {
      "type": "Feature",
      "properties": {
        "norad_id": 30047,
        "name": "FENGYUN 1C DEB",
        "group": "fengyun-1c-debris",
        "lat": -68.51213865402457,
        "lon": -56.5256151823743,
        "alt_km": 869.5237973690491,
        "timestamp": "2025-12-18T10:51:26.080005+00:00",
        "meta_object_name": "FENGYUN 1C DEB",
        "meta_object_id": "1999-025NY",
        "meta_epoch": "2025-12-17T22:13:33.066624",
        "meta_mean_motion": 13.94364446,
        "meta_eccentricity": 0.01256926,
        "meta_inclination": 99.9192,
        "meta_ra_of_asc_node": 149.3005,
        "meta_arg_of_pericenter": 308.9638,
        "meta_mean_anomaly": 182.5206,
        "meta_ephemeris_type": 0,
        "meta_classification_type": "U",
        "meta_norad_cat_id": 30047,
        "meta_element_set_no": 999,
        "meta_rev_at_epoch": 95988,
        "meta_bstar": 0.00047265873,
        "meta_mean_motion_dot": 6.2e-06,
        "meta_mean_motion_ddot": 0,
        "tle_line1": "1 30047U 99025NY  25351.92607716  .00000620  00000+0  47266-3 0  9998",
        "tle_line2": "2 30047  99.9192 149.3005 0125692 308.9638 182.5206 13.94364446959886"
      },
      "geometry": {
        "type": "Point",
        "coordinates": [
          -56.5256151823743,
          -68.51213865402457
        ]
      }
    },
    {
      "type": "Feature",
      "properties": {
        "norad_id": 30048,
        "name": "FENGYUN 1C DEB",
        "group": "fengyun-1c-debris",
        "lat": -49.348826458883806,
        "lon": -131.95931354258008,
        "alt_km": 946.053017837301,
        "timestamp": "2025-12-18T10:51:26.080015+00:00",
        "meta_object_name": "FENGYUN 1C DEB",
        "meta_object_id": "1999-025NZ",
        "meta_epoch": "2025-12-17T21:15:45.388800",
        "meta_mean_motion": 13.79896303,
        "meta_eccentricity": 0.01862815,
        "meta_inclination": 98.6664,
        "meta_ra_of_asc_node": 217.2903,
        "meta_arg_of_pericenter": 230.9672,
        "meta_mean_anomaly": 144.536,
        "meta_ephemeris_type": 0,
        "meta_classification_type": "U",
        "meta_norad_cat_id": 30048,
        "meta_element_set_no": 999,
        "meta_rev_at_epoch": 95197,
        "meta_bstar": 0.00020750601,
        "meta_mean_motion_dot": 2.05e-06,
        "meta_mean_motion_ddot": 0,
        "tle_line1": "1 30048U 99025NZ  25351.88594200  .00000205  00000+0  20751-3 0  9996",
        "tle_line2": "2 30048  98.6664 217.2903 0186281 230.9672 144.5360 13.79896303951978"
      },
      "geometry": {
        "type": "Point",
        "coordinates": [
          -131.95931354258008,
          -49.348826458883806
        ]
      }
    }
  ]
}